{
    "links": {
        "self": "http://www.neowsapp.com/rest/v1/neo/3471657?api_key=iIulBulltgU6a56xZRHN4H3l9WmuAYTsLGpBGhQ2"
    },
    "id": "3471657",
    "neo_reference_id": "3471657",
    "name": "(2009 UJ)",
    "designation": "2009 UJ",
    "nasa_jpl_url": "http://ssd.jpl.nasa.gov/sbdb.cgi?sstr=3471657",
    "absolute_magnitude_h": 26.1,
    "estimated_diameter": {
        "kilometers": {
            "estimated_diameter_min": 0.0160160338,
            "estimated_diameter_max": 0.0358129403
        },
        "meters": {
            "estimated_diameter_min": 16.0160337979,
            "estimated_diameter_max": 35.8129403019
        },
        "miles": {
            "estimated_diameter_min": 0.0099518989,
            "estimated_diameter_max": 0.0222531225
        },
        "feet": {
            "estimated_diameter_min": 52.5460443254,
            "estimated_diameter_max": 117.4965270602
        }
    },
    "is_potentially_hazardous_asteroid": false,
    "close_approach_data": [
        {
            "close_approach_date": "2009-10-22",
            "close_approach_date_full": "2009-Oct-22 09:57",
            "epoch_date_close_approach": 1256205420000,
            "relative_velocity": {
                "kilometers_per_second": "13.6881887652",
                "kilometers_per_hour": "49277.4795545926",
                "miles_per_hour": "30619.1094487967"
            },
            "miss_distance": {
                "astronomical": "0.0174436541",
                "lunar": "6.7855814449",
                "kilometers": "2609533.498376767",
                "miles": "1621488.9264507046"
            },
            "orbiting_body": "Earth"
        }
    ],
    "orbital_data": {
        "orbit_id": "9",
        "orbit_determination_date": "2017-04-06 08:59:33",
        "first_observation_date": "2009-10-16",
        "last_observation_date": "2009-10-23",
        "data_arc_in_days": 7,
        "observations_used": 37,
        "orbit_uncertainty": "8",
        "minimum_orbit_intersection": ".0137262",
        "jupiter_tisserand_invariant": "3.050",
        "epoch_osculation": "2455122.5",
        "eccentricity": ".6619161277199239",
        "semi_major_axis": "2.603904100557777",
        "inclination": "7.291981211698259",
        "ascending_node_longitude": "24.59248525075794",
        "orbital_period": "1534.743861965484",
        "perihelion_distance": ".8803379813625419",
        "perihelion_argument": "51.36781064252855",
        "aphelion_distance": "4.327470219753012",
        "perihelion_time": "2455159.898487656472",
        "mean_anomaly": "351.2275553660871",
        "mean_motion": ".2345668283298834",
        "equinox": "J2000",
        "orbit_class": {
            "orbit_class_type": "APO",
            "orbit_class_description": "Near-Earth asteroid orbits which cross the Earth’s orbit similar to that of 1862 Apollo",
            "orbit_class_range": "a (semi-major axis) > 1.0 AU; q (perihelion) < 1.017 AU"
        }
    },
    "is_sentry_object": false
}